ORBCOMM FM05            
1 25117U 97084F   25060.55368403  .00003710  00000+0  10868-2 0  9996
2 25117  45.0140 164.6395 0000675 298.0232  62.0551 14.45301477425039
ORBCOMM FM06            
1 25118U 97084G   25060.57985748  .00004082  00000+0  11876-2 0  9999
2 25118  45.0131 164.3753 0001230 242.8195 241.1741 14.45465649425952
ORBCOMM FM07            
1 25119U 97084H   25060.49886192  .00003952  00000+0  11523-2 0  9998
2 25119  45.0129 165.5199 0001272 333.5314  26.5473 14.45416892425935
ORBCOMM FM03            
1 25158U 98007B   25060.51184812  .00002085  00000+0  78278-3 0  9997
2 25158 107.9700 274.4723 0043634  76.5555 284.0442 14.34077044408605
ORBCOMM FM04            
1 25159U 98007C   25060.51510774  .00002246  00000+0  83720-3 0  9995
2 25159 107.9685 277.6273 0039405  73.7664 286.7806 14.34338003408781
ORBCOMM FM17            
1 25413U 98046A   25060.34639907  .00002326  00000+0  86289-3 0  9994
2 25413  44.9943  46.4422 0003257 347.8211  12.2557 14.34729012387682
ORBCOMM FM18            
1 25414U 98046B   25060.13717322  .00003932  00000+0  13327-2 0  9996
2 25414  44.9938 327.6664 0004516  82.2517 277.8844 14.38044451388698
ORBCOMM FM19            
1 25415U 98046C   25060.23478834  .00002919  00000+0  10054-2 0  9998
2 25415  44.9949 329.0326 0003488  70.0221  66.7912 14.37851592388665
